CCSDS_OMM_VERS = 2.0
CREATION_DATE  = 
ORIGINATOR     = 

OBJECT_NAME    = TRANSPORTER-15 J
OBJECT_ID      = 2025-276J
CENTER_NAME    = EARTH
REF_FRAME      = TEME
TIME_SYSTEM    = UTC
MEAN_ELEMENT_THEORY = SGP/SGP4

EPOCH          = 2025-12-18T17:57:22.864320
MEAN_MOTION    = 15.16702866
ECCENTRICITY   = .00049846
INCLINATION    = 97.4387
RA_OF_ASC_NODE = 64.3803
ARG_OF_PERICENTER = 273.0795
MEAN_ANOMALY   = 86.9868

EPHEMERIS_TYPE = 0
CLASSIFICATION_TYPE = U
NORAD_CAT_ID   = 66674
ELEMENT_SET_NO = 999
REV_AT_EPOCH   = 303
BSTAR          = .1795625E-3
MEAN_MOTION_DOT = .3452E-4
MEAN_MOTION_DDOT = 0

CCSDS_OMM_VERS = 2.0
CREATION_DATE  = 
ORIGINATOR     = 

OBJECT_NAME    = TRANSPORTER-15 K
OBJECT_ID      = 2025-276K
CENTER_NAME    = EARTH
REF_FRAME      = TEME
TIME_SYSTEM    = UTC
MEAN_ELEMENT_THEORY = SGP/SGP4

EPOCH          = 2025-12-19T11:20:16.295712
MEAN_MOTION    = 15.16945625
ECCENTRICITY   = .0005004
INCLINATION    = 97.4401
RA_OF_ASC_NODE = 65.0975
ARG_OF_PERICENTER = 274.1676
MEAN_ANOMALY   = 85.8985

EPHEMERIS_TYPE = 0
CLASSIFICATION_TYPE = U
NORAD_CAT_ID   = 66675
ELEMENT_SET_NO = 999
REV_AT_EPOCH   = 314
BSTAR          = .38739E-3
MEAN_MOTION_DOT = .7581E-4
MEAN_MOTION_DDOT = 0

CCSDS_OMM_VERS = 2.0
CREATION_DATE  = 
ORIGINATOR     = 

OBJECT_NAME    = TRANSPORTER-15 L
OBJECT_ID      = 2025-276L
CENTER_NAME    = EARTH
REF_FRAME      = TEME
TIME_SYSTEM    = UTC
MEAN_ELEMENT_THEORY = SGP/SGP4

EPOCH          = 2025-12-19T03:27:05.681664
MEAN_MOTION    = 15.16750475
ECCENTRICITY   = .00048204
INCLINATION    = 97.4404
RA_OF_ASC_NODE = 64.7724
ARG_OF_PERICENTER = 273.9183
MEAN_ANOMALY   = 86.1499

EPHEMERIS_TYPE = 0
CLASSIFICATION_TYPE = U
NORAD_CAT_ID   = 66676
ELEMENT_SET_NO = 999
REV_AT_EPOCH   = 309
BSTAR          = .26862885E-3
MEAN_MOTION_DOT = .5205E-4
MEAN_MOTION_DDOT = 0

CCSDS_OMM_VERS = 2.0
CREATION_DATE  = 
ORIGINATOR     = 

OBJECT_NAME    = TRANSPORTER-15 M
OBJECT_ID      = 2025-276M
CENTER_NAME    = EARTH
REF_FRAME      = TEME
TIME_SYSTEM    = UTC
MEAN_ELEMENT_THEORY = SGP/SGP4

EPOCH          = 2025-12-19T14:22:53.585184
MEAN_MOTION    = 15.17398982
ECCENTRICITY   = .0003817
INCLINATION    = 97.4397
RA_OF_ASC_NODE = 65.2316
ARG_OF_PERICENTER = 279.7196
MEAN_ANOMALY   = 80.3606

EPHEMERIS_TYPE = 0
CLASSIFICATION_TYPE = U
NORAD_CAT_ID   = 66677
ELEMENT_SET_NO = 999
REV_AT_EPOCH   = 316
BSTAR          = .46126E-3
MEAN_MOTION_DOT = .9158E-4
MEAN_MOTION_DDOT = 0

CCSDS_OMM_VERS = 2.0
CREATION_DATE  = 
ORIGINATOR     = 

OBJECT_NAME    = TRANSPORTER-15 N
OBJECT_ID      = 2025-276N
CENTER_NAME    = EARTH
REF_FRAME      = TEME
TIME_SYSTEM    = UTC
MEAN_ELEMENT_THEORY = SGP/SGP4

EPOCH          = 2025-12-19T11:21:20.708640
MEAN_MOTION    = 15.16808782
ECCENTRICITY   = .0004843
INCLINATION    = 97.4435
RA_OF_ASC_NODE = 65.1051
ARG_OF_PERICENTER = 264.5662
MEAN_ANOMALY   = 95.5019

EPHEMERIS_TYPE = 0
CLASSIFICATION_TYPE = U
NORAD_CAT_ID   = 66678
ELEMENT_SET_NO = 999
REV_AT_EPOCH   = 314
BSTAR          = .26988E-3
MEAN_MOTION_DOT = .5239E-4
MEAN_MOTION_DDOT = 0

CCSDS_OMM_VERS = 2.0
CREATION_DATE  = 
ORIGINATOR     = 

OBJECT_NAME    = TRANSPORTER-15 P
OBJECT_ID      = 2025-276P
CENTER_NAME    = EARTH
REF_FRAME      = TEME
TIME_SYSTEM    = UTC
MEAN_ELEMENT_THEORY = SGP/SGP4

EPOCH          = 2025-12-19T11:22:40.866240
MEAN_MOTION    = 15.16659761
ECCENTRICITY   = .0004626
INCLINATION    = 97.4376
RA_OF_ASC_NODE = 65.0895
ARG_OF_PERICENTER = 273.2016
MEAN_ANOMALY   = 86.8688

EPHEMERIS_TYPE = 0
CLASSIFICATION_TYPE = U
NORAD_CAT_ID   = 66679
ELEMENT_SET_NO = 999
REV_AT_EPOCH   = 314
BSTAR          = .15148E-3
MEAN_MOTION_DOT = .2898E-4
MEAN_MOTION_DDOT = 0

CCSDS_OMM_VERS = 2.0
CREATION_DATE  = 
ORIGINATOR     = 

OBJECT_NAME    = TRANSPORTER-15 Q
OBJECT_ID      = 2025-276Q
CENTER_NAME    = EARTH
REF_FRAME      = TEME
TIME_SYSTEM    = UTC
MEAN_ELEMENT_THEORY = SGP/SGP4

EPOCH          = 2025-12-19T11:21:00.504864
MEAN_MOTION    = 15.16781824
ECCENTRICITY   = .0005033
INCLINATION    = 97.4411
RA_OF_ASC_NODE = 65.1026
ARG_OF_PERICENTER = 265.8218
MEAN_ANOMALY   = 94.2440

EPHEMERIS_TYPE = 0
CLASSIFICATION_TYPE = U
NORAD_CAT_ID   = 66680
ELEMENT_SET_NO = 999
REV_AT_EPOCH   = 314
BSTAR          = .13946E-3
MEAN_MOTION_DOT = .2672E-4
MEAN_MOTION_DDOT = 0

CCSDS_OMM_VERS = 2.0
CREATION_DATE  = 
ORIGINATOR     = 

OBJECT_NAME    = TRANSPORTER-15 R
OBJECT_ID      = 2025-276R
CENTER_NAME    = EARTH
REF_FRAME      = TEME
TIME_SYSTEM    = UTC
MEAN_ELEMENT_THEORY = SGP/SGP4

EPOCH          = 2025-12-19T14:25:30.047808
MEAN_MOTION    = 15.17339099
ECCENTRICITY   = .0004944
INCLINATION    = 97.4348
RA_OF_ASC_NODE = 65.2178
ARG_OF_PERICENTER = 289.7196
MEAN_ANOMALY   = 70.3504

EPHEMERIS_TYPE = 0
CLASSIFICATION_TYPE = U
NORAD_CAT_ID   = 66681
ELEMENT_SET_NO = 999
REV_AT_EPOCH   = 316
BSTAR          = .5556E-3
MEAN_MOTION_DOT = .1103E-3
MEAN_MOTION_DDOT = 0

CCSDS_OMM_VERS = 2.0
CREATION_DATE  = 
ORIGINATOR     = 

OBJECT_NAME    = TRANSPORTER-15 S
OBJECT_ID      = 2025-276S
CENTER_NAME    = EARTH
REF_FRAME      = TEME
TIME_SYSTEM    = UTC
MEAN_ELEMENT_THEORY = SGP/SGP4

EPOCH          = 2025-12-19T11:17:56.656032
MEAN_MOTION    = 15.17073831
ECCENTRICITY   = .0004746
INCLINATION    = 97.4471
RA_OF_ASC_NODE = 65.1162
ARG_OF_PERICENTER = 254.2477
MEAN_ANOMALY   = 105.8233

EPHEMERIS_TYPE = 0
CLASSIFICATION_TYPE = U
NORAD_CAT_ID   = 66682
ELEMENT_SET_NO = 999
REV_AT_EPOCH   = 314
BSTAR          = .37415E-3
MEAN_MOTION_DOT = .7346E-4
MEAN_MOTION_DDOT = 0

CCSDS_OMM_VERS = 2.0
CREATION_DATE  = 
ORIGINATOR     = 

OBJECT_NAME    = TRANSPORTER-15 T
OBJECT_ID      = 2025-276T
CENTER_NAME    = EARTH
REF_FRAME      = TEME
TIME_SYSTEM    = UTC
MEAN_ELEMENT_THEORY = SGP/SGP4

EPOCH          = 2025-12-19T11:18:46.600416
MEAN_MOTION    = 15.16970051
ECCENTRICITY   = .0004607
INCLINATION    = 97.4463
RA_OF_ASC_NODE = 65.1138
ARG_OF_PERICENTER = 258.1451
MEAN_ANOMALY   = 101.9266

EPHEMERIS_TYPE = 0
CLASSIFICATION_TYPE = U
NORAD_CAT_ID   = 66683
ELEMENT_SET_NO = 999
REV_AT_EPOCH   = 314
BSTAR          = .24249E-3
MEAN_MOTION_DOT = .4722E-4
MEAN_MOTION_DDOT = 0

CCSDS_OMM_VERS = 2.0
CREATION_DATE  = 
ORIGINATOR     = 

OBJECT_NAME    = TRANSPORTER-15 U
OBJECT_ID      = 2025-276U
CENTER_NAME    = EARTH
REF_FRAME      = TEME
TIME_SYSTEM    = UTC
MEAN_ELEMENT_THEORY = SGP/SGP4

EPOCH          = 2025-12-18T03:35:45.403584
MEAN_MOTION    = 15.17214477
ECCENTRICITY   = .00044213
INCLINATION    = 97.4490
RA_OF_ASC_NODE = 63.8272
ARG_OF_PERICENTER = 261.2980
MEAN_ANOMALY   = 98.7753

EPHEMERIS_TYPE = 0
CLASSIFICATION_TYPE = U
NORAD_CAT_ID   = 66684
ELEMENT_SET_NO = 999
REV_AT_EPOCH   = 294
BSTAR          = .53836659E-3
MEAN_MOTION_DOT = .10646E-3
MEAN_MOTION_DDOT = 0

CCSDS_OMM_VERS = 2.0
CREATION_DATE  = 
ORIGINATOR     = 

OBJECT_NAME    = TRANSPORTER-15 V
OBJECT_ID      = 2025-276V
CENTER_NAME    = EARTH
REF_FRAME      = TEME
TIME_SYSTEM    = UTC
MEAN_ELEMENT_THEORY = SGP/SGP4

EPOCH          = 2025-12-19T14:23:40.254144
MEAN_MOTION    = 15.17380939
ECCENTRICITY   = .0003974
INCLINATION    = 97.4431
RA_OF_ASC_NODE = 65.2408
ARG_OF_PERICENTER = 278.7845
MEAN_ANOMALY   = 81.2938

EPHEMERIS_TYPE = 0
CLASSIFICATION_TYPE = U
NORAD_CAT_ID   = 66685
ELEMENT_SET_NO = 999
REV_AT_EPOCH   = 316
BSTAR          = .49331E-3
MEAN_MOTION_DOT = .9795E-4
MEAN_MOTION_DDOT = 0

